$$SOE
2461295.500000000, A.D. 2026-Sep-12 00:00:00.0000, -1.601659700378651E+08, 3.924840660012349E+08, 9.802338461626266E+07,
2461302.500000000, A.D. 2026-Sep-19 00:00:00.0000, -1.701737789734018E+08, 3.902950235672635E+08, 1.001599210091167E+08,
2461309.500000000, A.D. 2026-Sep-26 00:00:00.0000, -1.800830796051906E+08, 3.878796643906736E+08, 1.022382999123066E+08,
2461316.500000000, A.D. 2026-Oct-03 00:00:00.0000, -1.898897541170196E+08, 3.852428928064987E+08, 1.042582358570622E+08,
2461323.500000000, A.D. 2026-Oct-10 00:00:00.0000, -1.995898725964885E+08, 3.823895959549763E+08, 1.062194872127876E+08,
2461330.500000000, A.D. 2026-Oct-17 00:00:00.0000, -2.091796861140070E+08, 3.793246393020372E+08, 1.081218538053182E+08,
2461337.500000000, A.D. 2026-Oct-24 00:00:00.0000, -2.186556199517192E+08, 3.760528625336139E+08, 1.099651746323180E+08,
2461344.500000000, A.D. 2026-Oct-31 00:00:00.0000, -2.280142668961467E+08, 3.725790757248712E+08, 1.117493256596712E+08,
2461351.500000000, A.D. 2026-Nov-07 00:00:00.0000, -2.372523802658223E+08, 3.689080558276010E+08, 1.134742176718631E+08,
2461358.500000000, A.D. 2026-Nov-14 00:00:00.0000, -2.463668664817530E+08, 3.650445443339919E+08, 1.151397942283921E+08,
2461365.500000000, A.D. 2026-Nov-21 00:00:00.0000, -2.553547789998756E+08, 3.609932467721695E+08, 1.167460299463602E+08,
2461372.500000000, A.D. 2026-Nov-28 00:00:00.0000, -2.642133146075951E+08, 3.567588310010342E+08, 1.182929289528685E+08,
2461379.500000000, A.D. 2026-Dec-05 00:00:00.0000, -2.729398084660327E+08, 3.523459236219082E+08, 1.197805231181149E+08,
2461386.500000000, A.D. 2026-Dec-12 00:00:00.0000, -2.815317277360687E+08, 3.477591075936524E+08, 1.212088703054923E+08,
2461393.500000000, A.D. 2026-Dec-19 00:00:00.0000, -2.899866656769590E+08, 3.430029210379044E+08, 1.225780528101897E+08,
2461400.500000000, A.D. 2026-Dec-26 00:00:00.0000, -2.983023363581004E+08, 3.380818563466885E+08, 1.238881759251502E+08,
2461407.500000000, A.D. 2027-Jan-02 00:00:00.0000, -3.064765697057313E+08, 3.330003593810765E+08, 1.251393665894882E+08,
2461414.500000000, A.D. 2027-Jan-09 00:00:00.0000, -3.145073067660583E+08, 3.277628287613627E+08, 1.263317721064197E+08,
2461421.500000000, A.D. 2027-Jan-16 00:00:00.0000, -3.223925951488853E+08, 3.223736152395361E+08, 1.274655589249072E+08,
2461428.500000000, A.D. 2027-Jan-23 00:00:00.0000, -3.301305846055565E+08, 3.168370210986025E+08, 1.285409114749198E+08,
2461435.500000000, A.D. 2027-Jan-30 00:00:00.0000, -3.377195225526885E+08, 3.111572995171849E+08, 1.295580310327642E+08,
2461442.500000000, A.D. 2027-Feb-06 00:00:00.0000, -3.451577491150845E+08, 3.053386542267986E+08, 1.305171346026363E+08,
2461449.500000000, A.D. 2027-Feb-13 00:00:00.0000, -3.524436921457548E+08, 2.993852406694080E+08, 1.314184539533353E+08,
2461456.500000000, A.D. 2027-Feb-20 00:00:00.0000, -3.595758645845892E+08, 2.933011678534553E+08, 1.322622349595712E+08,
2461463.500000000, A.D. 2027-Feb-27 00:00:00.0000, -3.665528627555059E+08, 2.870904976848539E+08, 1.330487368541848E+08,
2461470.500000000, A.D. 2027-Mar-06 00:00:00.0000, -3.733733625783012E+08, 2.807572436840745E+08, 1.337782312677646E+08,
2461477.500000000, A.D. 2027-Mar-13 00:00:00.0000, -3.800361152922015E+08, 2.743053711281402E+08, 1.344510013671567E+08,
2461484.500000000, A.D. 2027-Mar-20 00:00:00.0000, -3.865399438176428E+08, 2.677387977753099E+08, 1.350673411264969E+08,
2461491.500000000, A.D. 2027-Mar-27 00:00:00.0000, -3.928837395497765E+08, 2.610613946167160E+08, 1.356275546653314E+08,
2461498.500000000, A.D. 2027-Apr-03 00:00:00.0000, -3.990664593758593E+08, 2.542769866003869E+08, 1.361319556290474E+08,
2461505.500000000, A.D. 2027-Apr-10 00:00:00.0000, -4.050871228504792E+08, 2.473893533442677E+08, 1.365808666056744E+08,
2461512.500000000, A.D. 2027-Apr-17 00:00:00.0000, -4.109448095018582E+08, 2.404022298179976E+08, 1.369746185737701E+08,
2461519.500000000, A.D. 2027-Apr-24 00:00:00.0000, -4.166386561853997E+08, 2.333193069258288E+08, 1.373135503670326E+08,
2461526.500000000, A.D. 2027-May-01 00:00:00.0000, -4.221678541802490E+08, 2.261442320134199E+08, 1.375980081284868E+08,
2461533.500000000, A.D. 2027-May-08 00:00:00.0000, -4.275316457169842E+08, 2.188806100420468E+08, 1.378283447853342E+08,
2461540.500000000, A.D. 2027-May-15 00:00:00.0000, -4.327293214295008E+08, 2.115320063791292E+08, 1.380049197580813E+08,
2461547.500000000, A.D. 2027-May-22 00:00:00.0000, -4.377602202919201E+08, 2.041019486101503E+08, 1.381280988345330E+08,
2461554.500000000, A.D. 2027-May-29 00:00:00.0000, -4.426237286801403E+08, 1.965939259012005E+08, 1.381982537795067E+08,
2461561.500000000, A.D. 2027-Jun-05 00:00:00.0000, -4.473192776677974E+08, 1.890113890399739E+08, 1.382157618530119E+08,
2461568.500000000, A.D. 2027-Jun-12 00:00:00.0000, -4.518463405609161E+08, 1.813577515830550E+08, 1.381810054550260E+08,
2461575.500000000, A.D. 2027-Jun-19 00:00:00.0000, -4.562044309997836E+08, 1.736363911721385E+08, 1.380943718501847E+08,
2461582.500000000, A.D. 2027-Jun-26 00:00:00.0000, -4.603931013453980E+08, 1.658506507559910E+08, 1.379562529246164E+08,
2461589.500000000, A.D. 2027-Jul-03 00:00:00.0000, -4.644119412149232E+08, 1.580038397244119E+08, 1.377670449625820E+08,
2461596.500000000, A.D. 2027-Jul-10 00:00:00.0000, -4.682605761261168E+08, 1.500992349609094E+08, 1.375271484394461E+08,
2461603.500000000, A.D. 2027-Jul-17 00:00:00.0000, -4.719386662114528E+08, 1.421400817734195E+08, 1.372369678237993E+08,
2461610.500000000, A.D. 2027-Jul-24 00:00:00.0000, -4.754459048427650E+08, 1.341295946386873E+08, 1.368969113686651E+08,
2461617.500000000, A.D. 2027-Jul-31 00:00:00.0000, -4.787820167523088E+08, 1.260709579944418E+08, 1.365073908727460E+08,
2461624.500000000, A.D. 2027-Aug-07 00:00:00.0000, -4.819467558483967E+08, 1.179673282297725E+08, 1.360688215236625E+08,
2461631.500000000, A.D. 2027-Aug-14 00:00:00.0000, -4.849399050248393E+08, 1.098218366192380E+08, 1.355816220131219E+08,
2461638.500000000, A.D. 2027-Aug-21 00:00:00.0000, -4.877612773445472E+08, 1.016375898364135E+08, 1.350462145921801E+08,
2461645.500000000, A.D. 2027-Aug-28 00:00:00.0000, -4.904107151629699E+08, 9.341766925054666E+07, 1.344630248493058E+08,
2461652.500000000, A.D. 2027-Sep-04 00:00:00.0000, -4.928880883681949E+08, 8.516513150758284E+07, 1.338324815223284E+08,
2461659.500000000, A.D. 2027-Sep-11 00:00:00.0000, -4.951932931303051E+08, 7.688300973238617E+07, 1.331550164168817E+08,
2461666.500000000, A.D. 2027-Sep-18 00:00:00.0000, -4.973262510252401E+08, 6.857431470067941E+07, 1.324310643652402E+08,
2461673.500000000, A.D. 2027-Sep-25 00:00:00.0000, -4.992869083030347E+08, 6.024203590225993E+07, 1.316610631976977E+08,
2461680.500000000, A.D. 2027-Oct-02 00:00:00.0000, -5.010752352244657E+08, 5.188914252266649E+07, 1.308454537215522E+08,
2461687.500000000, A.D. 2027-Oct-09 00:00:00.0000, -5.026912254428982E+08, 4.351858433897813E+07, 1.299846797050686E+08,
2461694.500000000, A.D. 2027-Oct-16 00:00:00.0000, -5.041348953672051E+08, 3.513329247548702E+07, 1.290791878558597E+08,
2461701.500000000, A.D. 2027-Oct-23 00:00:00.0000, -5.054062832445351E+08, 2.673618001427701E+07, 1.281294277689386E+08,
2461708.500000000, A.D. 2027-Oct-30 00:00:00.0000, -5.065054475864936E+08, 1.833014307156602E+07, 1.271358518593524E+08,
2461715.500000000, A.D. 2027-Nov-06 00:00:00.0000, -5.074324661004190E+08, 9.918063468015485E+06, 1.260989154776594E+08,
2461722.500000000, A.D. 2027-Nov-13 00:00:00.0000, -5.081874371103345E+08, 1.502810916509748E+06, 1.250190772203590E+08,
2461729.500000000, A.D. 2027-Nov-20 00:00:00.0000, -5.087704805654719E+08, -6.912757458080418E+06, 1.238967989905261E+08,
2461736.500000000, A.D. 2027-Nov-27 00:00:00.0000, -5.091817370172233E+08, -1.532579730186369E+07, 1.227325459021796E+08,
2461743.500000000, A.D. 2027-Dec-04 00:00:00.0000, -5.094213665860531E+08, -2.373347600391170E+07, 1.215267862880240E+08,
2461750.500000000, A.D. 2027-Dec-11 00:00:00.0000, -5.094895484682434E+08, -3.213297142188288E+07, 1.202799917821006E+08,
2461757.500000000, A.D. 2027-Dec-18 00:00:00.0000, -5.093864807074646E+08, -4.052147070046702E+07, 1.189926374245578E+08,
2461764.500000000, A.D. 2027-Dec-25 00:00:00.0000, -5.091123800789261E+08, -4.889616918450936E+07, 1.176652017745114E+08,
2461771.500000000, A.D. 2028-Jan-01 00:00:00.0000, -5.086674820442175E+08, -5.725426941194915E+07, 1.162981670283969E+08,
$$EOE